STARLINK-36284          
1 67194U 25304C   26005.50002314  .00084207  00000+0  13585-2 0  9993
2 67194  69.9995 340.5597 0003079 256.3592 341.0645 15.52488923  4284
STARLINK-36291          
1 67195U 25304D   26005.50002314 -.00149890  00000+0 -24733-2 0  9993
2 67195  69.9996 340.5583 0003281 268.4399 330.9955 15.52592034  4285
STARLINK-36239          
1 67196U 25304E   26005.50002314 -.00154837  00000+0 -25563-2 0  9993
2 67196  69.9995 340.5564 0003423 269.4322 331.9201 15.52594532  4289
STARLINK-36283          
1 67197U 25304F   26005.50002314 -.00013366  00000+0 -21470-3 0  9999
2 67197  69.9997 340.5513 0003005 251.6899 353.3840 15.52546853  4284
STARLINK-36267          
1 67198U 25304G   26005.50002314 -.00011713  00000+0 -18779-3 0  9992
2 67198  69.9997 340.5537 0002998 253.9056 349.2501 15.52542991  4255
STARLINK-36268          
1 67199U 25304H   26005.50002314  .00100703  00000+0  16212-2 0  9998
2 67199  69.9995 340.5479 0003053 255.0465 351.9637 15.52481103  4289
STARLINK-36270          
1 67200U 25304J   26005.50002314 -.01909394  00000+0 -34693-1 0  9999
2 67200  69.9994 340.5458 0002991 265.3122 343.6685 15.52914413  4288
STARLINK-36262          
1 67201U 25304K   26005.50002314 -.00190167  00000+0 -31504-2 0  9998
2 67201  69.9995 340.5448 0003482 268.2505 342.6580 15.52625967  4288
STARLINK-36263          
1 67202U 25304L   26005.50002314 -.00165031  00000+0 -27276-2 0  9992
2 67202  69.9997 340.5425 0003131 272.1162 340.7292 15.52602762  4287
STARLINK-36224          
1 67203U 25304M   26005.50002314 -.00166182  00000+0 -27472-2 0  9999
2 67203  69.9996 340.5407 0003122 270.2283 344.5370 15.52600813  4284
STARLINK-36185          
1 67204U 25304N   26005.50002314 -.00154394  00000+0 -25489-2 0  9998
2 67204  69.9997 340.5384 0003090 268.8075 347.8728 15.52595097  4286
STARLINK-36197          
1 67205U 25304P   26005.50002314 -.00164291  00000+0 -27154-2 0  9997
2 67205  69.9996 340.5360 0003045 270.2264 348.3717 15.52599943  4252
