CCSDS_OMM_VERS = 2.0
CREATION_DATE  = 
ORIGINATOR     = 

OBJECT_NAME    = STARLINK-36284
OBJECT_ID      = 2025-304C
CENTER_NAME    = EARTH
REF_FRAME      = TEME
TIME_SYSTEM    = UTC
MEAN_ELEMENT_THEORY = SGP/SGP4

EPOCH          = 2026-01-05T12:00:01.999296
MEAN_MOTION    = 15.52488923
ECCENTRICITY   = .0003079
INCLINATION    = 69.9995
RA_OF_ASC_NODE = 340.5597
ARG_OF_PERICENTER = 256.3592
MEAN_ANOMALY   = 341.0645

EPHEMERIS_TYPE = 0
CLASSIFICATION_TYPE = U
NORAD_CAT_ID   = 67194
ELEMENT_SET_NO = 999
REV_AT_EPOCH   = 428
BSTAR          = .13585E-2
MEAN_MOTION_DOT = .84207E-3
MEAN_MOTION_DDOT = 0

CCSDS_OMM_VERS = 2.0
CREATION_DATE  = 
ORIGINATOR     = 

OBJECT_NAME    = STARLINK-36291
OBJECT_ID      = 2025-304D
CENTER_NAME    = EARTH
REF_FRAME      = TEME
TIME_SYSTEM    = UTC
MEAN_ELEMENT_THEORY = SGP/SGP4

EPOCH          = 2026-01-05T12:00:01.999296
MEAN_MOTION    = 15.52592034
ECCENTRICITY   = .0003281
INCLINATION    = 69.9996
RA_OF_ASC_NODE = 340.5583
ARG_OF_PERICENTER = 268.4399
MEAN_ANOMALY   = 330.9955

EPHEMERIS_TYPE = 0
CLASSIFICATION_TYPE = U
NORAD_CAT_ID   = 67195
ELEMENT_SET_NO = 999
REV_AT_EPOCH   = 428
BSTAR          = -.24733E-2
MEAN_MOTION_DOT = -.14989E-2
MEAN_MOTION_DDOT = 0

CCSDS_OMM_VERS = 2.0
CREATION_DATE  = 
ORIGINATOR     = 

OBJECT_NAME    = STARLINK-36239
OBJECT_ID      = 2025-304E
CENTER_NAME    = EARTH
REF_FRAME      = TEME
TIME_SYSTEM    = UTC
MEAN_ELEMENT_THEORY = SGP/SGP4

EPOCH          = 2026-01-05T12:00:01.999296
MEAN_MOTION    = 15.52594532
ECCENTRICITY   = .0003423
INCLINATION    = 69.9995
RA_OF_ASC_NODE = 340.5564
ARG_OF_PERICENTER = 269.4322
MEAN_ANOMALY   = 331.9201

EPHEMERIS_TYPE = 0
CLASSIFICATION_TYPE = U
NORAD_CAT_ID   = 67196
ELEMENT_SET_NO = 999
REV_AT_EPOCH   = 428
BSTAR          = -.25563E-2
MEAN_MOTION_DOT = -.154837E-2
MEAN_MOTION_DDOT = 0

CCSDS_OMM_VERS = 2.0
CREATION_DATE  = 
ORIGINATOR     = 

OBJECT_NAME    = STARLINK-36283
OBJECT_ID      = 2025-304F
CENTER_NAME    = EARTH
REF_FRAME      = TEME
TIME_SYSTEM    = UTC
MEAN_ELEMENT_THEORY = SGP/SGP4

EPOCH          = 2026-01-05T12:00:01.999296
MEAN_MOTION    = 15.52546853
ECCENTRICITY   = .0003005
INCLINATION    = 69.9997
RA_OF_ASC_NODE = 340.5513
ARG_OF_PERICENTER = 251.6899
MEAN_ANOMALY   = 353.3840

EPHEMERIS_TYPE = 0
CLASSIFICATION_TYPE = U
NORAD_CAT_ID   = 67197
ELEMENT_SET_NO = 999
REV_AT_EPOCH   = 428
BSTAR          = -.2147E-3
MEAN_MOTION_DOT = -.13366E-3
MEAN_MOTION_DDOT = 0

CCSDS_OMM_VERS = 2.0
CREATION_DATE  = 
ORIGINATOR     = 

OBJECT_NAME    = STARLINK-36267
OBJECT_ID      = 2025-304G
CENTER_NAME    = EARTH
REF_FRAME      = TEME
TIME_SYSTEM    = UTC
MEAN_ELEMENT_THEORY = SGP/SGP4

EPOCH          = 2026-01-05T12:00:01.999296
MEAN_MOTION    = 15.52542991
ECCENTRICITY   = .0002998
INCLINATION    = 69.9997
RA_OF_ASC_NODE = 340.5537
ARG_OF_PERICENTER = 253.9056
MEAN_ANOMALY   = 349.2501

EPHEMERIS_TYPE = 0
CLASSIFICATION_TYPE = U
NORAD_CAT_ID   = 67198
ELEMENT_SET_NO = 999
REV_AT_EPOCH   = 425
BSTAR          = -.18779E-3
MEAN_MOTION_DOT = -.11713E-3
MEAN_MOTION_DDOT = 0

CCSDS_OMM_VERS = 2.0
CREATION_DATE  = 
ORIGINATOR     = 

OBJECT_NAME    = STARLINK-36268
OBJECT_ID      = 2025-304H
CENTER_NAME    = EARTH
REF_FRAME      = TEME
TIME_SYSTEM    = UTC
MEAN_ELEMENT_THEORY = SGP/SGP4

EPOCH          = 2026-01-05T12:00:01.999296
MEAN_MOTION    = 15.52481103
ECCENTRICITY   = .0003053
INCLINATION    = 69.9995
RA_OF_ASC_NODE = 340.5479
ARG_OF_PERICENTER = 255.0465
MEAN_ANOMALY   = 351.9637

EPHEMERIS_TYPE = 0
CLASSIFICATION_TYPE = U
NORAD_CAT_ID   = 67199
ELEMENT_SET_NO = 999
REV_AT_EPOCH   = 428
BSTAR          = .16212E-2
MEAN_MOTION_DOT = .100703E-2
MEAN_MOTION_DDOT = 0

CCSDS_OMM_VERS = 2.0
CREATION_DATE  = 
ORIGINATOR     = 

OBJECT_NAME    = STARLINK-36270
OBJECT_ID      = 2025-304J
CENTER_NAME    = EARTH
REF_FRAME      = TEME
TIME_SYSTEM    = UTC
MEAN_ELEMENT_THEORY = SGP/SGP4

EPOCH          = 2026-01-05T12:00:01.999296
MEAN_MOTION    = 15.52914413
ECCENTRICITY   = .0002991
INCLINATION    = 69.9994
RA_OF_ASC_NODE = 340.5458
ARG_OF_PERICENTER = 265.3122
MEAN_ANOMALY   = 343.6685

EPHEMERIS_TYPE = 0
CLASSIFICATION_TYPE = U
NORAD_CAT_ID   = 67200
ELEMENT_SET_NO = 999
REV_AT_EPOCH   = 428
BSTAR          = -.34693E-1
MEAN_MOTION_DOT = -.1909394E-1
MEAN_MOTION_DDOT = 0

CCSDS_OMM_VERS = 2.0
CREATION_DATE  = 
ORIGINATOR     = 

OBJECT_NAME    = STARLINK-36262
OBJECT_ID      = 2025-304K
CENTER_NAME    = EARTH
REF_FRAME      = TEME
TIME_SYSTEM    = UTC
MEAN_ELEMENT_THEORY = SGP/SGP4

EPOCH          = 2026-01-05T12:00:01.999296
MEAN_MOTION    = 15.52625967
ECCENTRICITY   = .0003482
INCLINATION    = 69.9995
RA_OF_ASC_NODE = 340.5448
ARG_OF_PERICENTER = 268.2505
MEAN_ANOMALY   = 342.6580

EPHEMERIS_TYPE = 0
CLASSIFICATION_TYPE = U
NORAD_CAT_ID   = 67201
ELEMENT_SET_NO = 999
REV_AT_EPOCH   = 428
BSTAR          = -.31504E-2
MEAN_MOTION_DOT = -.190167E-2
MEAN_MOTION_DDOT = 0

CCSDS_OMM_VERS = 2.0
CREATION_DATE  = 
ORIGINATOR     = 

OBJECT_NAME    = STARLINK-36263
OBJECT_ID      = 2025-304L
CENTER_NAME    = EARTH
REF_FRAME      = TEME
TIME_SYSTEM    = UTC
MEAN_ELEMENT_THEORY = SGP/SGP4

EPOCH          = 2026-01-05T12:00:01.999296
MEAN_MOTION    = 15.52602762
ECCENTRICITY   = .0003131
INCLINATION    = 69.9997
RA_OF_ASC_NODE = 340.5425
ARG_OF_PERICENTER = 272.1162
MEAN_ANOMALY   = 340.7292

EPHEMERIS_TYPE = 0
CLASSIFICATION_TYPE = U
NORAD_CAT_ID   = 67202
ELEMENT_SET_NO = 999
REV_AT_EPOCH   = 428
BSTAR          = -.27276E-2
MEAN_MOTION_DOT = -.165031E-2
MEAN_MOTION_DDOT = 0

CCSDS_OMM_VERS = 2.0
CREATION_DATE  = 
ORIGINATOR     = 

OBJECT_NAME    = STARLINK-36224
OBJECT_ID      = 2025-304M
CENTER_NAME    = EARTH
REF_FRAME      = TEME
TIME_SYSTEM    = UTC
MEAN_ELEMENT_THEORY = SGP/SGP4

EPOCH          = 2026-01-05T12:00:01.999296
MEAN_MOTION    = 15.52600813
ECCENTRICITY   = .0003122
INCLINATION    = 69.9996
RA_OF_ASC_NODE = 340.5407
ARG_OF_PERICENTER = 270.2283
MEAN_ANOMALY   = 344.5370

EPHEMERIS_TYPE = 0
CLASSIFICATION_TYPE = U
NORAD_CAT_ID   = 67203
ELEMENT_SET_NO = 999
REV_AT_EPOCH   = 428
BSTAR          = -.27472E-2
MEAN_MOTION_DOT = -.166182E-2
MEAN_MOTION_DDOT = 0

CCSDS_OMM_VERS = 2.0
CREATION_DATE  = 
ORIGINATOR     = 

OBJECT_NAME    = STARLINK-36185
OBJECT_ID      = 2025-304N
CENTER_NAME    = EARTH
REF_FRAME      = TEME
TIME_SYSTEM    = UTC
MEAN_ELEMENT_THEORY = SGP/SGP4

EPOCH          = 2026-01-05T12:00:01.999296
MEAN_MOTION    = 15.52595097
ECCENTRICITY   = .000309
INCLINATION    = 69.9997
RA_OF_ASC_NODE = 340.5384
ARG_OF_PERICENTER = 268.8075
MEAN_ANOMALY   = 347.8728

EPHEMERIS_TYPE = 0
CLASSIFICATION_TYPE = U
NORAD_CAT_ID   = 67204
ELEMENT_SET_NO = 999
REV_AT_EPOCH   = 428
BSTAR          = -.25489E-2
MEAN_MOTION_DOT = -.154394E-2
MEAN_MOTION_DDOT = 0

CCSDS_OMM_VERS = 2.0
CREATION_DATE  = 
ORIGINATOR     = 

OBJECT_NAME    = STARLINK-36197
OBJECT_ID      = 2025-304P
CENTER_NAME    = EARTH
REF_FRAME      = TEME
TIME_SYSTEM    = UTC
MEAN_ELEMENT_THEORY = SGP/SGP4

EPOCH          = 2026-01-05T12:00:01.999296
MEAN_MOTION    = 15.52599943
ECCENTRICITY   = .0003045
INCLINATION    = 69.9996
RA_OF_ASC_NODE = 340.5360
ARG_OF_PERICENTER = 270.2264
MEAN_ANOMALY   = 348.3717

EPHEMERIS_TYPE = 0
CLASSIFICATION_TYPE = U
NORAD_CAT_ID   = 67205
ELEMENT_SET_NO = 999
REV_AT_EPOCH   = 425
BSTAR          = -.27154E-2
MEAN_MOTION_DOT = -.164291E-2
MEAN_MOTION_DDOT = 0

